NORAD_CAT_ID,OBJECT_NAME,OBJECT_TYPE,EPOCH,MEAN_MOTION,ECCENTRICITY,INCLINATION,RA_OF_ASC_NODE,ARG_OF_PERICENTER,MEAN_ANOMALY,BSTAR,MEAN_MOTION_DOT,MEAN_MOTION_DDOT,TLE_LINE0,TLE_LINE1,TLE_LINE2,SEMIMAJOR_AXIS,PERIOD,APOGEE,PERIGEE,DECAYED
50186.0,STARLINK-3274,PAYLOAD,2023-12-04 08:12:46,15.08830622,0.0001776,53.218,8.7398,58.6861,301.4305,-2.6219e-05,-7.05e-06,0.0,0 STARLINK-3274,1 50186U 21125AG  23338.34220859 -.00000705  00000-0 -26219-4 0  9991,2 50186  53.2180   8.7398 0001776  58.6861 301.4305 15.08830622111702,6917.909,95.438,541.003,538.545,0.0
50186.0,STARLINK-3274,PAYLOAD,2023-12-04 22:31:15,15.08832953,0.0001563,53.218,6.0553,87.6767,272.4404,0.00075715,0.0001178,0.0,0 STARLINK-3274,1 50186U 21125AG  23338.93836899  .00011780  00000-0  75715-3 0  9990,2 50186  53.2180   6.0553 0001563  87.6767 272.4404 15.08832953111310,6917.902,95.438,540.848,538.686,0.0
50186.0,STARLINK-3274,PAYLOAD,2023-12-05 11:14:19,15.0888077,0.0001682,53.2167,3.6816,66.9472,293.1698,0.0011495,0.00018074,0.0,0 STARLINK-3274,1 50186U 21125AG  23339.46827894  .00018074  00000-0  11495-2 0  9991,2 50186  53.2167   3.6816 0001682  66.9472 293.1698 15.08880770111398,6917.756,95.435,540.784,538.457,0.0
50186.0,STARLINK-3274,PAYLOAD,2023-12-06 01:32:47,15.08864146,0.0001751,53.2165,1.0051,72.438,287.6804,0.00041619,6.346e-05,0.0,0 STARLINK-3274,1 50186U 21125AG  23340.06443621  .00006346  00000-0  41619-3 0  9992,2 50186  53.2165   1.0051 0001751  72.4380 287.6804 15.08864146111482,6917.807,95.436,540.883,538.46,0.0
50186.0,STARLINK-3274,PAYLOAD,2023-12-06 07:54:19,15.0885747,0.0002002,53.2187,359.8133,120.4296,239.6894,0.00033171,4.997e-05,0.0,0 STARLINK-3274,1 50186U 21125AG  23340.32939185  .00004997  00000-0  33171-3 0  9990,2 50186  53.2187 359.8133 0002002 120.4296 239.6894 15.08857470112008,6917.827,95.436,541.077,538.307,0.0
50186.0,STARLINK-3274,PAYLOAD,2023-12-07 04:34:20,15.08839707,0.0002072,53.2181,355.955,85.7686,274.3543,0.00033058,4.977e-05,0.0,0 STARLINK-3274,1 50186U 21125AG  23341.19051955  .00004977  00000-0  33058-3 0  9998,2 50186  53.2181 355.9550 0002072  85.7686 274.3543 15.08839707111655,6917.881,95.438,541.18,538.313,0.0
50186.0,STARLINK-3274,PAYLOAD,2023-12-07 07:45:07,15.08838726,0.0001828,53.2173,355.3576,78.5555,281.5643,-8.4433e-05,-1.632e-05,0.0,0 STARLINK-3274,1 50186U 21125AG  23341.32299898 -.00001632  00000-0 -84433-4 0  9994,2 50186  53.2173 355.3576 0001828  78.5555 281.5643 15.08838726112158,6917.884,95.438,541.014,538.485,0.0
50186.0,STARLINK-3274,PAYLOAD,2023-12-08 04:25:07,15.08839925,0.0001894,53.2182,351.4934,98.3668,261.7539,0.00014211,1.974e-05,0.0,0 STARLINK-3274,1 50186U 21125AG  23342.18412011  .00001974  00000-0  14211-3 0  9996,2 50186  53.2182 351.4934 0001894  98.3668 261.7539 15.08839925111808,6917.881,95.438,541.056,538.435,0.0
50186.0,STARLINK-3274,PAYLOAD,2023-12-08 10:46:40,15.08842293,0.0001798,53.2177,350.3013,92.4433,267.6765,0.00011495,1.542e-05,0.0,0 STARLINK-3274,1 50186U 21125AG  23342.44907840  .00001542  00000-0  11495-3 0  9996,2 50186  53.2177 350.3013 0001798  92.4433 267.6765 15.08842293112322,6917.873,95.437,540.982,538.495,0.0
50186.0,STARLINK-3274,PAYLOAD,2023-12-09 07:26:41,15.08843504,0.0001812,53.2177,346.4336,86.9279,273.1921,0.00016747,2.378e-05,0.0,0 STARLINK-3274,1 50186U 21125AG  23343.31019840  .00002378  00000-0  16747-3 0  9990,2 50186  53.2177 346.4336 0001812  86.9279 273.1921 15.08843504111971,6917.87,95.437,540.988,538.481,0.0
50186.0,STARLINK-3274,PAYLOAD,2023-12-10 08:52:51,15.08834753,0.0001904,53.2178,341.6758,88.5222,271.5988,-1.5063e-05,-5.28e-06,0.0,0 STARLINK-3274,1 50186U 21125AG  23344.37004393 -.00000528  00000-0 -15063-4 0  9992,2 50186  53.2178 341.6758 0001904  88.5222 271.5988 15.08834753112135,6917.896,95.438,541.079,538.444,0.0
50186.0,STARLINK-3274,PAYLOAD,2023-12-11 07:08:15,15.08843006,0.0001791,53.2184,337.5147,86.9362,273.1835,6.5677e-05,7.57e-06,0.0,0 STARLINK-3274,1 50186U 21125AG  23345.29740319  .00000757  00000-0  65677-4 0  9997,2 50186  53.2184 337.5147 0001791  86.9362 273.1835 15.08843006112757,6917.871,95.437,540.975,538.497,0.0
50186.0,STARLINK-3274,PAYLOAD,2023-12-12 03:48:16,15.0883851,0.000185,53.2188,333.6482,76.447,283.6728,8.5076e-05,1.066e-05,0.0,0 STARLINK-3274,1 50186U 21125AG  23346.15852758  .00001066  00000-0  85076-4 0  9993,2 50186  53.2188 333.6482 0001850  76.4470 283.6728 15.08838510112403,6917.885,95.438,541.03,538.47,0.0
50186.0,STARLINK-3274,PAYLOAD,2023-12-12 06:59:03,15.08839851,0.000185,53.2188,333.0547,76.1001,284.0197,9.5303e-05,1.229e-05,0.0,0 STARLINK-3274,1 50186U 21125AG  23346.29100759  .00001229  00000-0  95303-4 0  9990,2 50186  53.2188 333.0547 0001850  76.1001 284.0197 15.08839851112905,6917.881,95.438,541.026,538.466,0.0
50186.0,STARLINK-3274,PAYLOAD,2023-12-13 05:14:26,15.08844639,0.0001869,53.2187,328.8918,76.0355,284.0845,8.9922e-05,1.143e-05,0.0,0 STARLINK-3274,1 50186U 21125AG  23347.21836449  .00001143  00000-0  89922-4 0  9990,2 50186  53.2187 328.8918 0001869  76.0355 284.0845 15.08844639112561,6917.866,95.437,541.024,538.438,0.0
50186.0,STARLINK-3274,PAYLOAD,2023-12-14 05:05:13,15.08842955,0.0001764,53.218,324.4317,82.4388,277.6805,7.3748e-05,8.86e-06,0.0,0 STARLINK-3274,1 50186U 21125AG  23348.21196507  .00000886  00000-0  73748-4 0  9997,2 50186  53.2180 324.4317 0001764  82.4388 277.6805 15.08842955113193,6917.871,95.437,540.957,538.516,0.0
50186.0,STARLINK-3274,PAYLOAD,2023-12-15 03:20:37,15.08842008,0.0001834,53.2187,320.2669,97.3587,262.7613,6.3018e-05,7.15e-06,0.0,0 STARLINK-3274,1 50186U 21125AG  23349.13932397  .00000715  00000-0  63018-4 0  9994,2 50186  53.2187 320.2669 0001834  97.3587 262.7613 15.08842008113335,6917.874,95.437,541.008,538.471,0.0
50186.0,STARLINK-3274,PAYLOAD,2023-12-16 03:11:25,15.08836112,0.0001628,53.2177,315.8032,101.4188,258.6987,4.0368e-05,3.54e-06,0.0,0 STARLINK-3274,1 50186U 21125AG  23350.13292944  .00000354  00000-0  40368-4 0  9995,2 50186  53.2177 315.8032 0001628 101.4188 258.6987 15.08836112113004,6917.892,95.438,540.884,538.631,0.0
50186.0,STARLINK-3274,PAYLOAD,2023-12-16 04:46:48,15.0883865,0.0001616,53.2181,315.5061,92.4925,267.6252,4.3464e-05,4.04e-06,0.0,0 STARLINK-3274,1 50186U 21125AG  23350.19916888  .00000404  00000-0  43464-4 0  9997,2 50186  53.2181 315.5061 0001616  92.4925 267.6252 15.08838650113490,6917.885,95.438,540.867,538.632,0.0
50186.0,STARLINK-3274,PAYLOAD,2023-12-17 03:02:12,15.08839702,0.0001558,53.2175,311.3437,99.6702,260.4467,5.058e-06,-2.08e-06,0.0,0 STARLINK-3274,1 50186U 21125AG  23351.12653230 -.00000208  00000-0  50580-5 0  9991,2 50186  53.2175 311.3437 0001558  99.6702 260.4467 15.08839702113635,6917.881,95.438,540.824,538.668,0.0
50186.0,STARLINK-3274,PAYLOAD,2023-12-18 02:52:58,15.08852146,0.000148,53.2168,306.8907,97.2796,262.8364,0.00031622,4.75e-05,0.0,0 STARLINK-3274,1 50186U 21125AG  23352.12012649  .00004750  00000-0  31622-3 0  9994,2 50186  53.2168 306.8907 0001480  97.2796 262.8364 15.08852146113302,6917.843,95.437,540.732,538.684,0.0
50186.0,STARLINK-3274,PAYLOAD,2023-12-19 04:19:10,15.08834119,0.0001253,53.2168,302.1366,90.4858,269.6278,-2.8783e-05,-7.46e-06,0.0,0 STARLINK-3274,1 50186U 21125AG  23353.17997717 -.00000746  00000-0 -28783-4 0  9996,2 50186  53.2168 302.1366 0001253  90.4858 269.6278 15.08834119113468,6917.898,95.438,540.63,538.897,0.0
50186.0,STARLINK-3274,PAYLOAD,2023-12-20 04:09:57,15.08847125,0.0001394,53.2168,297.6685,74.3845,285.7301,0.00043658,6.668e-05,0.0,0 STARLINK-3274,1 50186U 21125AG  23354.17357696  .00006668  00000-0  43658-3 0  9997,2 50186  53.2168 297.6685 0001394  74.3845 285.7301 15.08847125113617,6917.859,95.437,540.688,538.759,0.0
50186.0,STARLINK-3274,PAYLOAD,2023-12-21 02:25:20,15.08857513,0.0001394,53.2165,293.5044,77.5382,282.5766,0.00049999,7.682e-05,0.0,0 STARLINK-3274,1 50186U 21125AG  23355.10093162  .00007682  00000-0  49999-3 0  9997,2 50186  53.2165 293.5044 0001394  77.5382 282.5766 15.08857513114230,6917.827,95.436,540.656,538.728,0.0
50186.0,STARLINK-3274,PAYLOAD,2023-12-22 02:16:07,15.08844653,0.0001325,53.2161,289.0452,91.2573,268.857,4.7271e-05,4.65e-06,0.0,0 STARLINK-3274,1 50186U 21125AG  23356.09453283  .00000465  00000-0  47271-4 0  9994,2 50186  53.2161 289.0452 0001325  91.2573 268.8570 15.08844653113902,6917.866,95.437,540.648,538.815,0.0
50186.0,STARLINK-3274,PAYLOAD,2023-12-23 05:17:41,15.08834787,0.000147,53.2168,283.9852,102.3429,257.7727,0.00027349,4.067e-05,0.0,0 STARLINK-3274,1 50186U 21125AG  23357.22061957  .00004067  00000-0  27349-3 0  9998,2 50186  53.2168 283.9852 0001470 102.3429 257.7727 15.08834787114078,6917.896,95.438,540.778,538.744,0.0
50186.0,STARLINK-3274,PAYLOAD,2023-12-24 05:08:28,15.08844749,0.0001634,53.2172,279.5226,103.9228,256.1946,0.00018601,2.674e-05,0.0,0 STARLINK-3274,1 50186U 21125AG  23358.21421544  .00002674  00000-0  18601-3 0  9993,2 50186  53.2172 279.5226 0001634 103.9228 256.1946 15.08844749114700,6917.866,95.437,540.861,538.6,0.0
50186.0,STARLINK-3274,PAYLOAD,2023-12-24 19:26:56,15.08843216,0.0002066,53.2176,276.8444,121.1509,238.9686,5.4519e-05,5.8e-06,0.0,0 STARLINK-3274,1 50186U 21125AG  23358.81037555  .00000580  00000-0  54519-4 0  9997,2 50186  53.2176 276.8444 0002066 121.1509 238.9686 15.08843216114314,6917.871,95.437,541.165,538.306,0.0
50186.0,STARLINK-3274,PAYLOAD,2023-12-24 22:37:42,15.088427,0.0002009,53.217,276.2496,122.9208,237.1978,3.9136e-05,3.35e-06,0.0,0 STARLINK-3274,1 50186U 21125AG  23358.94285537  .00000335  00000-0  39136-4 0  9992,2 50186  53.2170 276.2496 0002009 122.9208 237.1978 15.08842700114818,6917.872,95.437,541.127,538.347,0.0
50186.0,STARLINK-3274,PAYLOAD,2023-12-25 03:23:52,15.08849747,0.0001314,53.2167,275.364,93.2093,266.9049,0.00017635,2.521e-05,0.0,0 STARLINK-3274,1 50186U 21125AG  23359.14157462  .00002521  00000-0  17635-3 0  9998,2 50186  53.2167 275.3640 0001314  93.2093 266.9049 15.08849747114845,6917.851,95.437,540.625,538.807,0.0
